start=new Date('2022-10-07T00:00:00.000Z').valueOf();
sats=[{"OBJECT_ID":"2021-012BB","TLE_LINE2":"2 47669  53.0523 185.5239 0002905 140.3379 219.7825 15.12025775 92402","NORAD_CAT_ID":"47669","MEAN_ELEMENT_THEORY":"SGP4","MEAN_MOTION_DDOT":"0.0000000000000","INCLINATION":"53.0523","RA_OF_ASC_NODE":"185.5239","MEAN_MOTION":"15.12025775","RCS_SIZE":"LARGE","TIME_SYSTEM":"UTC","MEAN_MOTION_DOT":"0.00035483","REF_FRAME":"TEME","REV_AT_EPOCH":"9240","ELEMENT_SET_NO":"999","CENTER_NAME":"EARTH","APOAPSIS":"532.032","ARG_OF_PERICENTER":"140.3379","DECAY_DATE":null,"LAUNCH_DATE":"2021-02-16","PERIOD":"95.236","TLE_LINE1":"1 47669U 21012BB  22279.46468299  .00035483  00000-0  20484-2 0  9991","SEMIMAJOR_AXIS":"6908.160","OBJECT_TYPE":"PAYLOAD","BSTAR":"0.00204840000000","OBJECT_NAME":"STARLINK-2060","MEAN_ANOMALY":"219.7825","PERIAPSIS":"528.018","ECCENTRICITY":"0.00029050","EPHEMERIS_TYPE":"0","GP_ID":"214319636","EPOCH":"2022-10-06T11:09:08.610336","COUNTRY_CODE":"US","SITE":"AFETR","CLASSIFICATION_TYPE":"U","FILE":"3593887"},{"OBJECT_ID":"2021-012BC","MEAN_MOTION_DDOT":"0.0000000000000","MEAN_ELEMENT_THEORY":"SGP4","INCLINATION":"53.0544","RA_OF_ASC_NODE":"263.0951","NORAD_CAT_ID":"47670","TLE_LINE2":"2 47670  53.0544 263.0951 0001587  61.7826 298.3323 15.06395325 91856","MEAN_MOTION":"15.06395325","TIME_SYSTEM":"UTC","RCS_SIZE":"LARGE","REV_AT_EPOCH":"9185","MEAN_MOTION_DOT":"-0.00000240","REF_FRAME":"TEME","APOAPSIS":"548.327","ELEMENT_SET_NO":"999","CENTER_NAME":"EARTH","ARG_OF_PERICENTER":"61.7826","DECAY_DATE":null,"LAUNCH_DATE":"2021-02-16","PERIOD":"95.592","SEMIMAJOR_AXIS":"6925.363","BSTAR":"0.00000275510000","OBJECT_TYPE":"PAYLOAD","TLE_LINE1":"1 47670U 21012BC  22279.68820378 -.00000240  00000-0  27551-5 0  9996","OBJECT_NAME":"STARLINK-2062","PERIAPSIS":"546.129","MEAN_ANOMALY":"298.3323","ECCENTRICITY":"0.00015870","GP_ID":"214358399","EPHEMERIS_TYPE":"0","COUNTRY_CODE":"US","SITE":"AFETR","EPOCH":"2022-10-06T16:31:00.806592","CLASSIFICATION_TYPE":"U","FILE":"3594620"},{"COUNTRY_CODE":"US","SITE":"AFETR","EPOCH":"2022-10-06T16:04:28.006176","GP_ID":"214320435","EPHEMERIS_TYPE":"0","FILE":"3593915","CLASSIFICATION_TYPE":"U","PERIOD":"95.592","OBJECT_NAME":"STARLINK-2064","MEAN_ANOMALY":"284.9352","PERIAPSIS":"546.145","ECCENTRICITY":"0.00015190","SEMIMAJOR_AXIS":"6925.332","OBJECT_TYPE":"PAYLOAD","BSTAR":"0.00008155000000","TLE_LINE1":"1 47671U 21012BD  22279.66976859  .00000934  00000-0  81550-4 0  9998","APOAPSIS":"548.249","ELEMENT_SET_NO":"999","CENTER_NAME":"EARTH","LAUNCH_DATE":"2021-02-16","ARG_OF_PERICENTER":"75.1806","DECAY_DATE":null,"MEAN_MOTION_DDOT":"0.0000000000000","MEAN_ELEMENT_THEORY":"SGP4","RA_OF_ASC_NODE":"263.1632","INCLINATION":"53.0544","NORAD_CAT_ID":"47671","TLE_LINE2":"2 47671  53.0544 263.1632 0001519  75.1806 284.9352 15.06405494 91342","OBJECT_ID":"2021-012BD","REV_AT_EPOCH":"9134","MEAN_MOTION_DOT":"0.00000934","REF_FRAME":"TEME","MEAN_MOTION":"15.06405494","TIME_SYSTEM":"UTC","RCS_SIZE":"LARGE"},{"PERIOD":"95.592","TLE_LINE1":"1 47672U 21012BE  22279.64857426  .00004833  00000-0  34309-3 0  9996","BSTAR":"0.00034309000000","OBJECT_TYPE":"PAYLOAD","SEMIMAJOR_AXIS":"6925.335","MEAN_ANOMALY":"281.8375","PERIAPSIS":"546.026","ECCENTRICITY":"0.00016950","OBJECT_NAME":"STARLINK-2065","EPHEMERIS_TYPE":"0","GP_ID":"214357398","EPOCH":"2022-10-06T15:33:56.816064","SITE":"AFETR","COUNTRY_CODE":"US","CLASSIFICATION_TYPE":"U","FILE":"3594620","OBJECT_ID":"2021-012BE","TLE_LINE2":"2 47672  53.0536 253.2808 0001695  78.2804 281.8375 15.06404586 91977","NORAD_CAT_ID":"47672","INCLINATION":"53.0536","RA_OF_ASC_NODE":"253.2808","MEAN_ELEMENT_THEORY":"SGP4","MEAN_MOTION_DDOT":"0.0000000000000","RCS_SIZE":"LARGE","TIME_SYSTEM":"UTC","MEAN_MOTION":"15.06404586","REF_FRAME":"TEME","MEAN_MOTION_DOT":"0.00004833","REV_AT_EPOCH":"9197","CENTER_NAME":"EARTH","ELEMENT_SET_NO":"999","APOAPSIS":"548.373","DECAY_DATE":null,"ARG_OF_PERICENTER":"78.2804","LAUNCH_DATE":"2021-02-16"},{"APOAPSIS":"548.229","CENTER_NAME":"EARTH","ELEMENT_SET_NO":"999","DECAY_DATE":null,"ARG_OF_PERICENTER":"73.2329","LAUNCH_DATE":"2021-02-16","OBJECT_ID":"2021-012BF","INCLINATION":"53.0542","RA_OF_ASC_NODE":"262.7911","MEAN_MOTION_DDOT":"0.0000000000000","MEAN_ELEMENT_THEORY":"SGP4","NORAD_CAT_ID":"47673","TLE_LINE2":"2 47673  53.0542 262.7911 0001517  73.2329 286.8826 15.06411587 91868","TIME_SYSTEM":"UTC","RCS_SIZE":"LARGE","MEAN_MOTION":"15.06411587","REV_AT_EPOCH":"9186","REF_FRAME":"TEME","MEAN_MOTION_DOT":"0.00001168","GP_ID":"214357648","EPHEMERIS_TYPE":"0","SITE":"AFETR","COUNTRY_CODE":"US","EPOCH":"2022-10-06T18:11:50.730720","CLASSIFICATION_TYPE":"U","FILE":"3594620","PERIOD":"95.591","BSTAR":"0.00009730100000","OBJECT_TYPE":"PAYLOAD","SEMIMAJOR_AXIS":"6925.313","TLE_LINE1":"1 47673U 21012BF  22279.75822605  .00001168  00000-0  97301-4 0  9990","PERIAPSIS":"546.127","ECCENTRICITY":"0.00015170","MEAN_ANOMALY":"286.8826","OBJECT_NAME":"STARLINK-2066"},{"INCLINATION":"53.0565","RA_OF_ASC_NODE":"264.4951","MEAN_MOTION_DDOT":"0.0000000000000","MEAN_ELEMENT_THEORY":"SGP4","TLE_LINE2":"2 47674  53.0565 264.4951 0001798  60.0202 300.0965 15.06403242 91291","NORAD_CAT_ID":"47674","OBJECT_ID":"2021-012BG","REV_AT_EPOCH":"9129","REF_FRAME":"TEME","MEAN_MOTION_DOT":"0.00000044","RCS_SIZE":"LARGE","TIME_SYSTEM":"UTC","MEAN_MOTION":"15.06403242","APOAPSIS":"548.449","ELEMENT_SET_NO":"999","CENTER_NAME":"EARTH","LAUNCH_DATE":"2021-02-16","DECAY_DATE":null,"ARG_OF_PERICENTER":"60.0202","PERIOD":"95.592","MEAN_ANOMALY":"300.0965","PERIAPSIS":"545.958","ECCENTRICITY":"0.00017980","OBJECT_NAME":"STARLINK-2067","BSTAR":"0.00002183200000","OBJECT_TYPE":"PAYLOAD","SEMIMAJOR_AXIS":"6925.339","TLE_LINE1":"1 47674U 21012BG  22279.37395265  .00000044  00000-0  21832-4 0  9994","SITE":"AFETR","COUNTRY_CODE":"US","EPOCH":"2022-10-06T08:58:29.508960","GP_ID":"214320438","EPHEMERIS_TYPE":"0","FILE":"3593916","CLASSIFICATION_TYPE":"U"},{"APOAPSIS":"548.142","CENTER_NAME":"EARTH","ELEMENT_SET_NO":"999","ARG_OF_PERICENTER":"88.3705","DECAY_DATE":null,"LAUNCH_DATE":"2021-02-16","OBJECT_ID":"2021-012BH","MEAN_ELEMENT_THEORY":"SGP4","MEAN_MOTION_DDOT":"0.0000000000000","INCLINATION":"53.0532","RA_OF_ASC_NODE":"265.1272","TLE_LINE2":"2 47675  53.0532 265.1272 0001339  88.3705 271.7437 15.06399685 91790","NORAD_CAT_ID":"47675","MEAN_MOTION":"15.06399685","RCS_SIZE":"LARGE","TIME_SYSTEM":"UTC","REV_AT_EPOCH":"9179","MEAN_MOTION_DOT":"0.00003242","REF_FRAME":"TEME","GP_ID":"214311329","EPHEMERIS_TYPE":"0","COUNTRY_CODE":"US","SITE":"AFETR","EPOCH":"2022-10-06T05:38:09.299904","CLASSIFICATION_TYPE":"U","FILE":"3593749","PERIOD":"95.592","SEMIMAJOR_AXIS":"6925.350","OBJECT_TYPE":"PAYLOAD","BSTAR":"0.00023641000000","TLE_LINE1":"1 47675U 21012BH  22279.23482986  .00003242  00000-0  23641-3 0  9999","OBJECT_NAME":"STARLINK-2078","PERIAPSIS":"546.287","MEAN_ANOMALY":"271.7437","ECCENTRICITY":"0.00013390"},{"CENTER_NAME":"EARTH","ELEMENT_SET_NO":"999","APOAPSIS":"547.921","ARG_OF_PERICENTER":"104.6615","DECAY_DATE":null,"LAUNCH_DATE":"2021-02-16","OBJECT_ID":"2021-012BJ","NORAD_CAT_ID":"47676","TLE_LINE2":"2 47676  53.0523 152.4618 0001016 104.6615 255.4487 15.06398883 93400","MEAN_ELEMENT_THEORY":"SGP4","MEAN_MOTION_DDOT":"0.0000000000000","INCLINATION":"53.0523","RA_OF_ASC_NODE":"152.4618","MEAN_MOTION":"15.06398883","RCS_SIZE":"LARGE","TIME_SYSTEM":"UTC","MEAN_MOTION_DOT":"0.00004586","REF_FRAME":"TEME","REV_AT_EPOCH":"9340","EPHEMERIS_TYPE":"0","GP_ID":"214357898","EPOCH":"2022-10-06T19:51:22.369536","COUNTRY_CODE":"US","SITE":"AFETR","CLASSIFICATION_TYPE":"U","FILE":"3594620","PERIOD":"95.592","TLE_LINE1":"1 47676U 21012BJ  22279.82734224  .00004586  00000-0  32654-3 0  9996","SEMIMAJOR_AXIS":"6925.352","OBJECT_TYPE":"PAYLOAD","BSTAR":"0.00032654000000","OBJECT_NAME":"STARLINK-2083","ECCENTRICITY":"0.00010160","PERIAPSIS":"546.513","MEAN_ANOMALY":"255.4487"},{"REF_FRAME":"TEME","MEAN_MOTION_DOT":"0.00002112","REV_AT_EPOCH":"9158","RCS_SIZE":"LARGE","TIME_SYSTEM":"UTC","MEAN_MOTION":"15.06407098","TLE_LINE2":"2 47677  53.0550 282.8010 0001859  56.1106 304.0060 15.06407098 91580","NORAD_CAT_ID":"47677","RA_OF_ASC_NODE":"282.8010","INCLINATION":"53.0550","MEAN_ELEMENT_THEORY":"SGP4","MEAN_MOTION_DDOT":"0.0000000000000","OBJECT_ID":"2021-012BK","LAUNCH_DATE":"2021-02-16","DECAY_DATE":null,"ARG_OF_PERICENTER":"56.1106","CENTER_NAME":"EARTH","ELEMENT_SET_NO":"999","APOAPSIS":"548.479","MEAN_ANOMALY":"304.0060","PERIAPSIS":"545.904","ECCENTRICITY":"0.00018590","OBJECT_NAME":"STARLINK-2090","TLE_LINE1":"1 47677U 21012BK  22279.75175478  .00002112  00000-0  16063-3 0  9998","BSTAR":"0.00016063000000","OBJECT_TYPE":"PAYLOAD","SEMIMAJOR_AXIS":"6925.327","PERIOD":"95.592","FILE":"3594620","CLASSIFICATION_TYPE":"U","EPOCH":"2022-10-06T18:02:31.612992","SITE":"AFETR","COUNTRY_CODE":"US","EPHEMERIS_TYPE":"0","GP_ID":"214358148"},{"MEAN_MOTION":"15.06392448","RCS_SIZE":"LARGE","TIME_SYSTEM":"UTC","MEAN_MOTION_DOT":"-0.00000082","REF_FRAME":"TEME","REV_AT_EPOCH":"9159","OBJECT_ID":"2021-012BM","NORAD_CAT_ID":"47679","TLE_LINE2":"2 47679  53.0535 282.9898 0001711  58.4850 301.6306 15.06392448 91597","MEAN_ELEMENT_THEORY":"SGP4","MEAN_MOTION_DDOT":"0.0000000000000","INCLINATION":"53.0535","RA_OF_ASC_NODE":"282.9898","ARG_OF_PERICENTER":"58.4850","DECAY_DATE":null,"LAUNCH_DATE":"2021-02-16","CENTER_NAME":"EARTH","ELEMENT_SET_NO":"999","APOAPSIS":"548.422","TLE_LINE1":"1 47679U 21012BM  22279.71491256 -.00000082  00000-0  13369-4 0  9993","SEMIMAJOR_AXIS":"6925.372","OBJECT_TYPE":"PAYLOAD","BSTAR":"0.00001336900000","OBJECT_NAME":"STARLINK-2095","PERIAPSIS":"546.052","MEAN_ANOMALY":"301.6306","ECCENTRICITY":"0.00017110","PERIOD":"95.593","CLASSIFICATION_TYPE":"U","FILE":"3594620","EPHEMERIS_TYPE":"0","GP_ID":"214358400","EPOCH":"2022-10-06T17:09:28.445184","COUNTRY_CODE":"US","SITE":"AFETR"}];
